[{"OBJECT_NAME":"CUBESX-HSE 3 (RS42S)","OBJECT_ID":"2023-091N","EPOCH":"2026-03-09T22:57:25.321248","MEAN_MOTION":15.286147,"ECCENTRICITY":0.00127191,"INCLINATION":97.5203,"RA_OF_ASC_NODE":133.4295,"ARG_OF_PERICENTER":86.5376,"MEAN_ANOMALY":273.7318,"EPHEMERIS_TYPE":0,"CLASSIFICATION_TYPE":"U","NORAD_CAT_ID":57178,"ELEMENT_SET_NO":999,"REV_AT_EPOCH":14925,"BSTAR":0.00059055694,"MEAN_MOTION_DOT":0.00016417,"MEAN_MOTION_DDOT":0},{"OBJECT_NAME":"STARLINK-32500","OBJECT_ID":"2024-207Z","EPOCH":"2026-03-09T13:57:43.125696","MEAN_MOTION":15.27589215,"ECCENTRICITY":7.44e-5,"INCLINATION":42.9989,"RA_OF_ASC_NODE":285.9761,"ARG_OF_PERICENTER":28.1004,"MEAN_ANOMALY":331.9887,"EPHEMERIS_TYPE":0,"CLASSIFICATION_TYPE":"U","NORAD_CAT_ID":61935,"ELEMENT_SET_NO":999,"REV_AT_EPOCH":7466,"BSTAR":0.0009045,"MEAN_MOTION_DOT":0.00024718,"MEAN_MOTION_DDOT":0}]
